OBJECT_NAME,OBJECT_ID,EPOCH,MEAN_MOTION,ECCENTRICITY,INCLINATION,RA_OF_ASC_NODE,ARG_OF_PERICENTER,MEAN_ANOMALY,EPHEMERIS_TYPE,CLASSIFICATION_TYPE,NORAD_CAT_ID,ELEMENT_SET_NO,REV_AT_EPOCH,BSTAR,MEAN_MOTION_DOT,MEAN_MOTION_DDOT
HAWK-5A,2022-057AB,2026-06-07T04:10:40.010016,15.51032572,.0005983,97.6592,316.3791,108.7072,251.4829,0,U,52757,999,22479,.34723E-3,.20116E-3,0
HAWK-6B,2023-011A,2026-06-07T09:53:13.459776,15.22842694,.0003999,40.4987,49.0839,308.4007,51.6443,0,U,55324,999,18635,.21517E-3,.495E-4,0
HAWK-6C,2023-011C,2026-06-07T00:25:40.706400,15.22846078,.000458,40.4979,48.2214,296.5763,63.4577,0,U,55326,999,18630,.22379E-3,.5158E-4,0
HAWK-6A,2023-011D,2026-06-06T10:15:48.597120,15.22834948,.00042951,40.4987,53.2869,292.3056,67.7298,0,U,55327,999,18621,.24210657E-3,.5594E-4,0
HAWK-7A,2023-054P,2026-06-07T09:55:59.121408,15.27255974,.0004672,97.2706,46.0011,81.2992,278.8776,0,U,56191,999,17553,.74174E-4,.191E-4,0
HAWK-7B,2023-054R,2026-06-07T09:55:52.237920,15.27261226,.0004004,97.2736,44.2598,87.9829,272.1869,0,U,56193,999,17553,.24162E-3,.6383E-4,0
HAWK-7C,2023-054Y,2026-06-07T09:55:42.358080,15.27258503,.0004134,97.2713,45.0313,80.3035,279.8671,0,U,56200,999,17553,.23832E-3,.6295E-4,0
