HAWK-5A                 
1 52757U 22057AB  26158.17407419  .00020116  00000+0  34723-3 0  9998
2 52757  97.6592 316.3791 0005983 108.7072 251.4829 15.51032572224792
HAWK-6B                 
1 55324U 23011A   26158.41196134  .00004950  00000+0  21517-3 0  9993
2 55324  40.4987  49.0839 0003999 308.4007  51.6443 15.22842694186357
HAWK-6C                 
1 55326U 23011C   26158.01783225  .00005158  00000+0  22379-3 0  9992
2 55326  40.4979  48.2214 0004580 296.5763  63.4577 15.22846078186305
HAWK-6A                 
1 55327U 23011D   26157.42764580  .00005594  00000+0  24211-3 0  9991
2 55327  40.4987  53.2869 0004295 292.3056  67.7298 15.22834948186219
HAWK-7A                 
1 56191U 23054P   26158.41387872  .00001910  00000+0  74174-4 0  9995
2 56191  97.2706  46.0011 0004672  81.2992 278.8776 15.27255974175530
HAWK-7B                 
1 56193U 23054R   26158.41379905  .00006383  00000+0  24162-3 0  9995
2 56193  97.2736  44.2598 0004004  87.9829 272.1869 15.27261226175533
HAWK-7C                 
1 56200U 23054Y   26158.41368470  .00006295  00000+0  23832-3 0  9994
2 56200  97.2713  45.0313 0004134  80.3035 279.8671 15.27258503175530
